182P/LONEOS,e,16.2271,72.4575,54.2340,2.950677,0.1944561,0.66322500,24.4542,09/15.0/2022,2000,g 18.0,4.0
# From MPEC 2022-K19
183P/Korlevic-Juric,e,19.0308,3.9681,168.4543,4.622134,0.0991837,0.11679929,176.1287,09/15.0/2022,2000,g 12.5,2.0
# From MPEC 2020-W26
184P/Lovas,e,4.5739,173.2407,186.5286,3.796576,0.1332343,0.55102977,91.7535,09/15.0/2022,2000,g 13.5,4.0
# From MPC109593
185P/Petriew,e,14.0143,214.1128,181.8845,3.098041,0.1807480,0.69964720,305.6095,09/15.0/2022,2000,g 15.0,4.0
# From MPEC 2021-W31
186P/Garradd,e,28.7013,326.4441,270.1460,4.861223,0.0919572,0.12359575,123.7598,09/15.0/2022,2000,g  7.5,4.0
# From MPEC 2020-SI8
187P/LINEAR,e,13.6353,109.8976,131.4678,4.566162,0.1010130,0.15219035,160.3337,09/15.0/2022,2000,g  9.0,4.0
# From MPEC 2022-K19
188P/LINEAR-Mueller,e,10.5262,358.9670,26.6067,4.371461,0.1078361,0.41664818,219.2011,09/15.0/2022,2000,g 11.5,4.0
# From MPEC 2022-QD9
189P/NEAT,e,20.0685,281.7165,16.3304,2.945574,0.1949616,0.58870039,3.3445,09/15.0/2022,2000,g 19.0,4.0
# From MPEC 2020-K19
190P/Mueller,e,2.1740,335.5510,50.3630,4.231356,0.1132361,0.52209555,265.8980,09/15.0/2022,2000,g 13.0,4.0
# From MPEC 2022-C56
191P/McNaught,e,8.8407,98.2273,284.0947,3.636874,0.1421057,0.38600942,77.2547,09/15.0/2022,2000,g 13.0,4.0
# From MPC 75724
192P/Shoemaker-Levy,e,24.5824,51.6102,313.0376,6.470052,0.0598884,0.77346645,323.0297,09/15.0/2022,2000,g 15.0,4.0
# From MPEC 2022-K19
193P/LINEAR-NEAT,e,10.6883,335.1738,8.0871,3.576436,0.1457231,0.39374971,56.2228,09/15.0/2022,2000,g 14.0,4.0
# From MPC 98566
194P/LINEAR,e,11.8828,349.6385,128.6205,4.126779,0.1175675,0.56631251,300.4855,09/15.0/2022,2000,g 16.0,4.0
# From MPEC 2021-S45
195P/Hill,e,36.3349,243.1223,249.2458,6.507419,0.0593733,0.31420990,297.9163,09/15.0/2022,2000,g  8.5,4.0
# From MPEC 2022-RD9
196P/Tichy,e,19.3006,24.1113,12.0514,3.806329,0.1327225,0.42850385,354.1156,09/15.0/2022,2000,g 13.5,4.0
# From MPC 94676
197P/LINEAR,e,25.5278,66.3629,188.7491,2.867979,0.2029271,0.62936500,343.0098,09/15.0/2022,2000,g 16.5,2.0
# From NK 1596
198P/ODAS,e,1.3385,358.2337,69.1885,3.596853,0.1444841,0.44409727,198.0247,09/15.0/2022,2000,g  9.0,4.0
# From MPEC 2022-N37
199P/Shoemaker,e,24.9337,92.3536,191.7574,5.886191,0.0690164,0.50555952,337.4653,09/15.0/2022,2000,g 10.0,4.0
# From MPEC 2022-C56
200P/Larsen,e,12.0979,234.7523,134.2594,4.945152,0.0896261,0.33268566,102.4470,09/15.0/2022,2000,g  9.0,4.0
# From MPC 93588
201P/LONEOS,e,5.7397,19.7453,41.5424,3.354585,0.1604154,0.63724961,76.3975,09/15.0/2022,2000,g 14.0,4.0
# From MPEC 2022-K19
202P/Scotti,e,2.1297,177.3320,275.5373,4.107810,0.1183828,0.25843202,287.4436,09/15.0/2022,2000,g 13.5,4.0
# From MPEC 2021-S45
203P/Korlevic,e,2.9727,290.3061,154.7725,4.669708,0.0976719,0.31555953,90.2736,09/15.0/2022,2000,g 14.5,2.0
# From MPEC 2022-QD9
204P/LINEAR-NEAT,e,6.5962,108.5000,356.6479,3.581114,0.1454376,0.48776325,350.8569,09/15.0/2022,2000,g 14.0,4.0
# From MPEC 2022-K19
205P/Giacobini,e,15.3062,179.6024,154.1701,3.542218,0.1478397,0.56806424,36.1213,09/15.0/2022,2000,g 13.0,4.0
# From MPC 75725
206P/Barnard-Boattini,e,33.6385,202.3325,189.5190,3.489552,0.1511992,0.55151519,84.5792,09/15.0/2022,2000,g 19.0,4.0
# From MPC 75725
207P/NEAT,e,10.1991,198.1766,273.0541,3.877402,0.1290901,0.75851672,294.9640,09/15.0/2022,2000,g 16.0,4.0
# From MPEC 2022-K19
208P/McMillan,e,4.4124,36.3397,310.5620,4.042690,0.1212547,0.37415612,274.0908,09/15.0/2022,2000,g 12.5,4.0
# From MPC 90771
209P/LINEAR,e,21.2608,62.7690,152.4392,2.959908,0.1935471,0.67320278,230.5290,09/15.0/2022,2000,g 17.0,2.0
# From MPC105242
210P/Christensen,e,10.2708,93.8107,345.8960,3.163235,0.1751890,0.83352494,155.9207,09/15.0/2022,2000,g 13.5,4.0
# From MPEC 2022-ED3
211P/Hill,e,18.9206,117.1320,4.2768,3.546867,0.1475492,0.34375459,357.1089,09/15.0/2022,2000,g 12.5,4.0
# From MPEC 2021-F20
212P/NEAT,e,22.1584,98.1100,14.0563,3.896733,0.1281307,0.58714470,284.6366,09/15.0/2022,2000,g 17.0,2.0
# From MPEC 2022-GA9
213P/Van Ness,e,10.3808,311.2876,5.7310,3.346699,0.1609827,0.40820155,291.9611,09/15.0/2022,2000,g 10.5,4.0
# From MPC 92986
214P/LINEAR,e,15.1833,348.2491,190.1845,3.620077,0.1430959,0.48592829,358.3940,09/15.0/2022,2000,g 13.0,4.0
# From MPEC 2022-F14
215P/NEAT,e,10.5780,56.6821,262.3620,4.330333,0.1093760,0.16636914,112.7158,09/15.0/2022,2000,g 11.0,4.0
# From MPC100284
216P/LINEAR,e,9.0648,359.8115,151.5794,3.861098,0.1299086,0.44844856,297.8199,09/15.0/2022,2000,g 13.0,4.0
# From MPEC 2021-N06
217P/LINEAR,e,12.8624,125.4437,246.9092,3.949042,0.1255933,0.68924247,236.5846,09/15.0/2022,2000,g 12.0,4.0
# From MPEC 2022-K19
218P/LINEAR,e,2.7299,175.9967,59.6069,3.089482,0.1814996,0.62270926,129.0769,09/15.0/2022,2000,g 16.0,4.0
# From MPC100284
219P/LINEAR,e,11.5380,230.9516,107.5485,3.647374,0.1414926,0.35415355,286.9074,09/15.0/2022,2000,g 11.0,4.0
# From MPEC 2021-BE3
220P/McNaught,e,8.1285,150.1032,180.5911,3.117199,0.1790842,0.50151158,115.2198,09/15.0/2022,2000,g 15.0,4.0
# From MPEC 2022-R68
221P/LINEAR,e,11.4324,229.6583,40.1781,3.459034,0.1532046,0.49325598,41.4922,09/15.0/2022,2000,g 14.5,4.0
# From MPC 92277
222P/LINEAR,e,5.0985,6.7761,346.2712,2.898895,0.1996895,0.71480200,239.0318,09/15.0/2022,2000,g 20.0,4.0
# From MPEC 2021-S45
223P/Skiff,e,27.0257,346.7698,37.8409,4.158715,0.1162158,0.41644913,154.0471,09/15.0/2022,2000,g 12.0,4.0
# From MPC 75727
224P/LINEAR-NEAT,e,13.3057,40.0383,16.6671,3.443953,0.1542120,0.40591683,357.6921,09/15.0/2022,2000,g 15.5,4.0
# From MPC 75727
225P/LINEAR,e,21.3668,14.2047,3.9039,3.648371,0.1414346,0.63844353,313.7414,09/15.0/2022,2000,g 18.0,4.0
# From MPC106349
226P/Pigott-LINEAR-Kowalski,e,44.0425,54.0101,341.0617,3.766415,0.1348379,0.52890824,296.8593,09/15.0/2022,2000,g 12.5,4.0
# From MPC102956
227P/Catalina-LINEAR,e,7.4624,37.0005,104.9303,3.458218,0.1532588,0.53008669,277.5197,09/15.0/2022,2000,g 16.5,2.0
# From MPEC 2022-HC2
228P/LINEAR,e,7.9132,30.9863,114.9256,4.167637,0.1158428,0.17624947,106.6435,09/15.0/2022,2000,g 14.1,4.0
# From MPC106349
229P/Gibbs,e,26.0920,157.9082,224.0306,3.927148,0.1266451,0.37780822,245.7115,09/15.0/2022,2000,g 13.0,4.0
# From MPEC 2022-GA9
230P/LINEAR,e,15.4695,106.9834,313.4414,3.451880,0.1536811,0.54551220,27.6086,09/15.0/2022,2000,g 13.0,4.0
# From MPEC 2022-K19
231P/LINEAR-NEAT,e,12.3067,132.9967,44.1567,4.044165,0.1211883,0.24385018,143.8340,09/15.0/2022,2000,g 14.5,2.0
# From MPC112394
232P/Hill,e,14.6412,56.0207,53.2634,4.476054,0.1040785,0.33457169,130.9711,09/15.0/2022,2000,g 11.5,4.0
# From MPEC 2021-N06
233P/La Sagra,e,11.2874,74.9152,26.9762,3.028869,0.1869749,0.41206053,133.3837,09/15.0/2022,2000,g 15.0,4.0
# From MPEC 2022-K19
234P/LINEAR,e,11.5357,179.5729,357.2624,3.797436,0.1331890,0.25611405,257.5175,09/15.0/2022,2000,g 12.0,4.0
# From MPC110497
235P/LINEAR,e,9.2796,202.4360,333.8145,3.919682,0.1270070,0.33880405,206.4228,09/15.0/2022,2000,g 12.0,4.0
# From MPC107688
236P/LINEAR,e,16.3470,245.5809,119.3157,3.728558,0.1368966,0.50936916,240.5542,09/15.0/2022,2000,g 14.0,4.0
# From MPEC 2022-K19
237P/LINEAR,e,14.0153,245.3623,25.2550,3.511740,0.1497685,0.43418142,323.8058,09/15.0/2022,2000,g 14.5,2.0
# From MPEC 2022-R68
238P/Read,e,1.2640,51.6257,324.2066,3.166197,0.1749432,0.25167366,17.7686,09/15.0/2022,2000,g 14.5,4.0
# From MPEC 2021-F20
239P/LINEAR,e,11.3014,255.9231,220.3845,4.468115,0.1043560,0.63022812,140.3425,09/15.0/2022,2000,g 17.5,2.0
# From MPEC 2021-F20
240P/NEAT,e,23.5257,74.9076,351.9454,3.864708,0.1297266,0.44965265,205.3287,09/15.0/2022,2000,g 12.1,4.0
# From MPEC 2022-J42
241P/LINEAR,e,21.1033,305.4794,111.4512,4.920447,0.0903020,0.61028125,37.5742,09/15.0/2022,2000,g 13.5,4.0
# From MPEC 2021-S45
242P/Spahr,e,32.5105,180.3749,245.5103,5.498918,0.0764343,0.27883896,296.1345,09/15.0/2022,2000,g  8.0,4.0
# From MPEC 2022-K19
243P/NEAT,e,7.6410,87.6061,283.6137,3.830050,0.1314914,0.36057790,194.5008,09/15.0/2022,2000,g 12.5,4.0
# From MPEC 2022-ED3
244P/Scotti,e,2.2594,353.9919,93.0941,4.895701,0.0909875,0.19921476,354.2539,09/15.0/2022,2000,g  9.0,4.0
# From MPEC 2022-CN4
245P/WISE,e,21.1919,316.6612,316.8707,4.046852,0.1210677,0.45634825,203.4521,09/15.0/2022,2000,g 14.0,4.0
# From MPEC 2022-RD9
246P/NEAT,e,15.9695,78.3931,177.1205,4.033972,0.1216480,0.28944938,68.9314,09/15.0/2022,2000,g 10.5,4.0
# From MPEC 2021-F20
247P/LINEAR,e,13.6578,54.0240,47.4149,3.967756,0.1247058,0.62453628,172.5572,09/15.0/2022,2000,g 16.5,2.0
# From MPC 75730
248P/Gibbs,e,6.3510,207.8062,209.8562,5.990593,0.0672201,0.63896729,286.3186,09/15.0/2022,2000,g 14.0,4.0
# From MPEC 2021-S45
249P/LINEAR,e,8.3878,239.0993,65.7160,2.763515,0.2145415,0.81980975,173.2504,09/15.0/2022,2000,g 15.5,4.0
# From MPC110497
250P/Larson,e,13.1527,73.3838,46.1209,3.767466,0.1347814,0.39910035,228.4609,09/15.0/2022,2000,g 14.5,4.0
# From MPC104795
251P/LINEAR,e,23.3864,219.3502,31.2707,3.512448,0.1497232,0.50456216,282.7024,09/15.0/2022,2000,g 16.5,2.0
# From MPEC 2021-S45
252P/LINEAR,e,10.4121,190.9220,343.3725,3.050546,0.1849855,0.67154082,79.6927,09/15.0/2022,2000,g 17.5,4.0
# From MPEC 2020-FB5
253P/PANSTARRS,e,4.9434,146.8828,230.6880,3.464952,0.1528123,0.41448028,242.8238,09/15.0/2022,2000,g 14.5,4.0
# From MPEC 2022-K19
254P/McNaught,e,32.5689,129.1819,219.6260,4.614917,0.0994164,0.31974128,71.0563,09/15.0/2022,2000,g 11.0,4.0
# From MPEC 2021-UA9
255P/Levy,e,13.4110,275.6652,186.0124,2.941972,0.1953198,0.71150743,1.5047,09/15.0/2022,2000,g 14.1,4.0
# From MPEC 2022-C56
256P/LINEAR,e,27.6188,81.3362,124.2040,4.639457,0.0986287,0.41798696,342.4152,09/15.0/2022,2000,g 14.0,2.0
# From MPEC 2021-Y10
257P/Catalina,e,20.2199,207.7201,117.7388,3.763677,0.1349850,0.43016803,99.1177,09/15.0/2022,2000,g 11.5,4.0
# From MPEC 2021-U31
258P/PANSTARRS,e,6.7465,126.2400,25.8162,4.395061,0.1069687,0.20841353,87.6341,09/15.0/2022,2000,g 13.0,4.0
# From MPC106349
259P/Garradd,e,15.8939,51.4317,257.6114,2.730580,0.2184348,0.33888502,47.7695,09/15.0/2022,2000,g 15.5,4.0
# From MPEC 2022-O01
